CCSDS_OMM_VERS = 2.0
CREATION_DATE  = 
ORIGINATOR     = 

OBJECT_NAME    = CORAL
OBJECT_ID      = 1998-067YA
CENTER_NAME    = EARTH
REF_FRAME      = TEME
TIME_SYSTEM    = UTC
MEAN_ELEMENT_THEORY = SGP/SGP4

EPOCH          = 2026-04-05T12:50:39.519168
MEAN_MOTION    = 15.59320760
ECCENTRICITY   = .0013706
INCLINATION    = 51.6287
RA_OF_ASC_NODE = 297.1745
ARG_OF_PERICENTER = 275.8736
MEAN_ANOMALY   = 84.0695

EPHEMERIS_TYPE = 0
CLASSIFICATION_TYPE = U
NORAD_CAT_ID   = 67684
ELEMENT_SET_NO = 999
REV_AT_EPOCH   = 897
BSTAR          = .12655E-2
MEAN_MOTION_DOT = .102857E-2
MEAN_MOTION_DDOT = 0

CCSDS_OMM_VERS = 2.0
CREATION_DATE  = 
ORIGINATOR     = 

OBJECT_NAME    = GXIBA-1
OBJECT_ID      = 1998-067YB
CENTER_NAME    = EARTH
REF_FRAME      = TEME
TIME_SYSTEM    = UTC
MEAN_ELEMENT_THEORY = SGP/SGP4

EPOCH          = 2026-04-05T13:10:16.974048
MEAN_MOTION    = 15.54864526
ECCENTRICITY   = .0012581
INCLINATION    = 51.6303
RA_OF_ASC_NODE = 298.0165
ARG_OF_PERICENTER = 282.5760
MEAN_ANOMALY   = 77.3823

EPHEMERIS_TYPE = 0
CLASSIFICATION_TYPE = U
NORAD_CAT_ID   = 67685
ELEMENT_SET_NO = 999
REV_AT_EPOCH   = 896
BSTAR          = .76762E-3
MEAN_MOTION_DOT = .52226E-3
MEAN_MOTION_DDOT = 0

CCSDS_OMM_VERS = 2.0
CREATION_DATE  = 
ORIGINATOR     = 

OBJECT_NAME    = UITMSAT-2
OBJECT_ID      = 1998-067YC
CENTER_NAME    = EARTH
REF_FRAME      = TEME
TIME_SYSTEM    = UTC
MEAN_ELEMENT_THEORY = SGP/SGP4

EPOCH          = 2026-04-05T06:31:46.682112
MEAN_MOTION    = 15.55998101
ECCENTRICITY   = .0009567
INCLINATION    = 51.6300
RA_OF_ASC_NODE = 299.1708
ARG_OF_PERICENTER = 255.7390
MEAN_ANOMALY   = 104.2539

EPHEMERIS_TYPE = 0
CLASSIFICATION_TYPE = U
NORAD_CAT_ID   = 67686
ELEMENT_SET_NO = 999
REV_AT_EPOCH   = 892
BSTAR          = .99793E-3
MEAN_MOTION_DOT = .71028E-3
MEAN_MOTION_DDOT = 0

CCSDS_OMM_VERS = 2.0
CREATION_DATE  = 
ORIGINATOR     = 

OBJECT_NAME    = HMU-SAT2
OBJECT_ID      = 1998-067YD
CENTER_NAME    = EARTH
REF_FRAME      = TEME
TIME_SYSTEM    = UTC
MEAN_ELEMENT_THEORY = SGP/SGP4

EPOCH          = 2026-04-04T18:48:25.578432
MEAN_MOTION    = 15.54504888
ECCENTRICITY   = .0009085
INCLINATION    = 51.6310
RA_OF_ASC_NODE = 301.9093
ARG_OF_PERICENTER = 256.2021
MEAN_ANOMALY   = 103.7959

EPHEMERIS_TYPE = 0
CLASSIFICATION_TYPE = U
NORAD_CAT_ID   = 67687
ELEMENT_SET_NO = 999
REV_AT_EPOCH   = 876
BSTAR          = .80536E-3
MEAN_MOTION_DOT = .54021E-3
MEAN_MOTION_DDOT = 0

CCSDS_OMM_VERS = 2.0
CREATION_DATE  = 
ORIGINATOR     = 

OBJECT_NAME    = LEOPARD
OBJECT_ID      = 1998-067YE
CENTER_NAME    = EARTH
REF_FRAME      = TEME
TIME_SYSTEM    = UTC
MEAN_ELEMENT_THEORY = SGP/SGP4

EPOCH          = 2026-04-05T12:54:44.196192
MEAN_MOTION    = 15.55496232
ECCENTRICITY   = .0009272
INCLINATION    = 51.6305
RA_OF_ASC_NODE = 297.9469
ARG_OF_PERICENTER = 257.5605
MEAN_ANOMALY   = 102.4348

EPHEMERIS_TYPE = 0
CLASSIFICATION_TYPE = U
NORAD_CAT_ID   = 67688
ELEMENT_SET_NO = 999
REV_AT_EPOCH   = 888
BSTAR          = .83932E-3
MEAN_MOTION_DOT = .58458E-3
MEAN_MOTION_DDOT = 0

CCSDS_OMM_VERS = 2.0
CREATION_DATE  = 
ORIGINATOR     = 

OBJECT_NAME    = CREW DRAGON 12
OBJECT_ID      = 2026-031A
CENTER_NAME    = EARTH
REF_FRAME      = TEME
TIME_SYSTEM    = UTC
MEAN_ELEMENT_THEORY = SGP/SGP4

EPOCH          = 2026-04-05T13:16:46.803936
MEAN_MOTION    = 15.48786980
ECCENTRICITY   = .0006351
INCLINATION    = 51.6328
RA_OF_ASC_NODE = 299.5432
ARG_OF_PERICENTER = 274.8255
MEAN_ANOMALY   = 85.2008

EPHEMERIS_TYPE = 0
CLASSIFICATION_TYPE = U
NORAD_CAT_ID   = 67796
ELEMENT_SET_NO = 999
REV_AT_EPOCH   = 56048
BSTAR          = .1642E-3
MEAN_MOTION_DOT = .8543E-4
MEAN_MOTION_DDOT = 0

CCSDS_OMM_VERS = 2.0
CREATION_DATE  = 
ORIGINATOR     = 

OBJECT_NAME    = PROGRESS-MS 33
OBJECT_ID      = 2026-058A
CENTER_NAME    = EARTH
REF_FRAME      = TEME
TIME_SYSTEM    = UTC
MEAN_ELEMENT_THEORY = SGP/SGP4

EPOCH          = 2026-04-05T13:16:46.803936
MEAN_MOTION    = 15.48786980
ECCENTRICITY   = .0006351
INCLINATION    = 51.6328
RA_OF_ASC_NODE = 299.5432
ARG_OF_PERICENTER = 274.8255
MEAN_ANOMALY   = 85.2008

EPHEMERIS_TYPE = 0
CLASSIFICATION_TYPE = U
NORAD_CAT_ID   = 68319
ELEMENT_SET_NO = 999
REV_AT_EPOCH   = 199
BSTAR          = .1642E-3
MEAN_MOTION_DOT = .8543E-4
MEAN_MOTION_DDOT = 0

